    PK21C020  2021 02 24.5824  4.883788  0.488355   78.7211   66.4555   21.9385  20250607  12.0  4.0  P/2021 C2 (PANSTARRS)                                    MPEC 2021-U31
    CK21C030  2021 02 11.1312  2.274046  0.962378  356.9768  181.8551  122.2061  20250607  14.0  4.0  C/2021 C3 (Catalina)                                     MPEC 2024-M41
    CK21C040  2021 01 16.2019  4.493582  0.998850  320.0296  194.2305  132.8322  20250607   9.0  4.0  C/2021 C4 (ATLAS)                                        MPEC 2022-M88
    CK21C050  2023 02 10.9796  3.240446  0.998104  270.8909  323.6735   50.8026  20250607   9.0  4.0  C/2021 C5 (PANSTARRS)                                    MPEC 2024-N80
    CK21C060  2021 11 11.9242  3.284186  0.998783  203.8555  332.3268  164.6090  20250607  12.0  4.0  C/2021 C6 (Lemmon)                                       MPEC 2022-YB4
    CK21D010  2021 02 27.3662  0.907968  0.991101   72.4544  311.1656   31.3577  20250607  13.0  4.0  C/2021 D1 (SWAN)                                         MPEC 2022-F14
    CK21D020  2022 02  3.6634  2.949390  1.001436  125.0656  305.6295   83.7726  20250607   9.0  4.0  C/2021 D2 (ZTF)                                          MPEC 2023-J29
    AK21E020  2020 12  8.9898  2.282957  0.988626  342.2234  190.7533  167.4935  20250607  15.0  2.0  A/2021 E2                                                MPEC 2022-UY9
    CK21E030  2022 06 11.1741  1.777480  0.999881  228.8021  104.4839  112.5254  20250607   8.5  4.0  C/2021 E3 (ZTF)                                          MPEC 2024-GJ3
    AK21E040  2022 04 24.8335  4.679671  0.990725   48.2813  171.1423  116.3804  20250607  13.5  2.0  A/2021 E4                                                MPEC 2024-N80
    CK21F010  2022 04  6.7370  0.999184  0.995975  146.9431  203.5451  107.2924  20250607  13.5  4.0  C/2021 F1 (Lemmon-PANSTARRS)                             MPEC 2022-QD9
    CK21G010  2021 07 20.3922  3.427670  0.951791  107.4342  270.6978  131.5470  20250607  14.0  4.0  C/2021 G1 (Leonard)                                      MPEC 2021-J72
    CK21G020  2024 09  9.1381  4.982300  1.000710  343.2670  221.0948   48.4673  20250607   5.5  4.0  C/2021 G2 (ATLAS)                                        MPC184409
    CK21G030  2021 10 17.8526  5.182408  0.999409   10.5966  147.3473  102.8725  20250607  10.5  4.0  C/2021 G3 (PANSTARRS)                                    MPEC 2022-X67
    PK21H00S  2021 08  4.8271  0.799110  0.809438   46.1195  262.3586   12.1545  20250607  22.0  4.0  P/2021 HS (PANSTARRS)                                    MPEC 2021-Y10
    CK21J010  2021 02 19.4231  1.734109  0.933816  147.2016   88.4319   92.7078  20250607  15.5  4.0  C/2021 J1 (Maury-Attard)                                 MPEC 2022-C56
    CK21J020  2021 09 20.8236  4.701472  0.958003  171.8860   23.3100  156.2116  20250607  12.0  4.0  C/2021 J2 (PANSTARRS)                                    MPEC 2023-XP6
    PK21J030  2019 06 30.4082  4.895591  0.449374  125.6376  111.0061   14.5154  20250607   7.0  4.0  P/2021 J3 (ATLAS)                                        MPEC 2024-F34
    CK21K010  2021 05  2.4345  2.502070  0.801523  184.2254  140.9236   16.2713  20250607  11.0  4.0  C/2021 K1 (ATLAS)                                        MPEC 2022-O08
    CK21K020  2021 09  9.2652  5.463955  1.000476  343.2804  282.3370  100.8710  20250607   8.0  4.0  C/2021 K2 (MASTER)                                       MPEC 2022-O01
    CK21K030  2022 02  3.6622  5.227832  1.004214  182.0155  114.6072  134.7805  20250607  10.0  4.0  C/2021 K3 (Catalina)                                     MPEC 2022-L66
    PK21L020  2021 07 22.8578  1.939570  0.520801   51.4342  266.6533   21.0645  20250607  17.0  4.0  P/2021 L2 (Leonard)                                      MPEC 2021-W31
    CK21L030  2022 02 14.9876  8.460199  1.004560   91.6503  345.0163   78.5393  20250607   6.0  4.0  C/2021 L3 (Borisov)                                      MPEC 2024-H50
    PK21N010  2026 07 27.8496  0.966249  0.675728   21.2263  301.1355   11.4856  20250607  19.0  4.0  P/2021 N1 (ZTF)                                          MPEC 2022-TA0
    PK21N020  2021 11 14.1845  3.805684  0.452162  177.6277  221.7427   13.0601  20250607   9.5  4.0  P/2021 N2 (Fuls)                                         MPEC 2024-GJ3
    CK21N030  2020 08 16.9598  5.712295  0.959379  304.6036  337.5252   26.7630  20250607   8.5  4.0  C/2021 N3 (PANSTARRS)                                    MPEC 2022-YB4
    CK21O010  2021 08 14.7476  0.782771  0.999837   74.4253   41.5444   27.5716  20250607  10.5  4.0  C/2021 O1 (Nishimura)                                    MPEC 2022-A21
    CK21O030  2022 04 21.2790  0.285132  1.000051  300.0165  188.7945   56.8265  20250607  10.5  4.0  C/2021 O3 (PANSTARRS)                                    MPEC 2022-L66
    CK21P010  2022 06  2.5785  4.379569  0.998387   40.5251  359.7108   51.6209  20250607  11.0  4.0  C/2021 P1 (PANSTARRS)                                    MPEC 2024-F34
    CK21P020  2023 01 23.0778  5.068062  0.999611   76.7165   32.0943  150.0554  20250607   9.0  4.0  C/2021 P2 (PANSTARRS)                                    MPC184409
    PK21P030  2021 05 28.3744  2.919184  0.338380  334.0109  358.2483   27.1602  20250607  14.0  4.0  P/2021 P3 (PANSTARRS)                                    MPEC 2024-GJ3
    CK21P040  2022 07 30.4213  1.078644  0.996357  175.8072  348.0099   56.3727  20250607   9.5  4.0  C/2021 P4 (ATLAS)                                        MPEC 2023-A50
    PK21P20E  2028 09  4.5434  1.236315  0.669952  210.4345   99.6248   20.0000  20250607  17.0  4.0  P/2021 PE20 (ATLAS)                                      MPEC 2023-E68
    CK21Q030  2022 01 26.0869  5.208699  0.930647  114.1449  307.9094   77.7168  20250607   8.0  4.0  C/2021 Q3 (ATLAS)                                        MPEC 2023-FK0
    CK21Q040  2023 06 11.1267  7.565158  1.001761  147.0577  183.3291   71.5308  20250607   6.0  4.0  C/2021 Q4 (Fuls)                                         MPEC 2025-A40
    PK21Q050  2027 08 16.9857  1.234013  0.624570  180.9568  239.7555   10.7383  20250607  15.0  4.0  P/2021 Q5 (ATLAS)                                        MPEC 2022-C56
    CK21Q060  2024 03 25.2207  8.707743  1.002785  141.0643  133.5742  161.8260  20250607   6.0  4.0  C/2021 Q6 (PANSTARRS)                                    MPEC 2024-UA9
    CK21Q45M  2022 08 13.6825  2.778020  0.993202   72.9193  354.5964   22.7994  20250607  11.0  4.0  C/2021 QM45 (PANSTARRS)                                  MPEC 2023-FK0
    PK21R010  2021 12  8.8778  4.884484  0.408246  220.0466  143.1106    5.5325  20250607  11.0  4.0  P/2021 R1 (PANSTARRS)                                    MPEC 2022-X67
    CK21R020  2021 12 28.4483  7.316511  0.999301   32.5514   16.3366  134.4823  20250607   7.5  4.0  C/2021 R2 (PANSTARRS)                                    MPEC 2022-X67
    PK21R030  2028 09 17.7153  2.519654  0.331530    2.5905  304.1942   19.9414  20250607  16.0  4.0  P/2021 R3 (PANSTARRS)                                    MPEC 2021-W31
    PK21R040  2021 10 13.4411  2.333838  0.585290   56.7759  321.2822   21.0120  20250607  16.0  4.0  P/2021 R4 (Wierzchos)                                    MPEC 2021-W31
    PK21R050  2022 01 12.4133  3.329986  0.305959  167.6057  219.9619    7.8538  20250607  12.0  4.0  P/2021 R5 (Rankin)                                       MPEC 2024-JU4
    PK21R060  2021 10 31.9429  2.559320  0.593047  220.8794  176.1617   34.8921  20250607  14.5  4.0  P/2021 R6 (Groeller)                                     MPEC 2021-W31
    CK21R070  2021 04 17.3065  5.654602  0.994322  140.3960  170.2005  158.8748  20250607  10.5  4.0  C/2021 R7 (PANSTARRS)                                    MPEC 2022-X67
    PK21R080  2027 01  5.7856  2.136640  0.292557  190.8203  167.0660    2.2027  20250607  18.5  4.0  P/2021 R8 (Sheppard)                                     MPEC 2021-Y10
    CK21S010  2022 03  1.9959  6.124948  1.002894  148.3065  299.8565   52.0384  20250607   7.0  4.0  C/2021 S1 (ATLAS)                                        MPEC 2023-J29
    CK21S030  2024 02 14.6735  1.319790  1.000019    6.8372  215.6084   58.5389  20250607   5.5  4.0  C/2021 S3 (PANSTARRS)                                    MPC184409
    CK21S040  2024 01  3.8162  6.691686  0.957228   73.0398    5.4532   17.4795  20250607   6.5  4.0  C/2021 S4 (Tsuchinshan)                                  MPC184409
    CK21T010  2021 10 14.8469  3.060410  0.998910   51.5821   56.8478  140.3528  20250607  12.5  4.0  C/2021 T1 (Lemmon)                                       MPEC 2022-OB6
    CK21T020  2022 06  8.3198  1.244243  1.000537  263.5303  223.2090  117.5134  20250607  12.0  4.0  C/2021 T2 (Fuls)                                         MPEC 2023-A50
    CK21T040  2023 07 31.5176  1.481561  0.999707  329.7726  257.8897  160.7784  20250607   7.5  4.0  C/2021 T4 (Lemmon)                                       MPC184409
    PK21T81R  2022 04  3.5989  1.464864  0.833029  272.0071  220.1771   36.8148  20250607  15.6  4.0  P/2021 TR81 (Lemmon)                                     MPC184409
    PK21U010  2021 09 30.7736  2.453771  0.712665  145.2354  246.7942   30.5513  20250607  14.5  4.0  P/2021 U1 (Wierzchos)                                    MPEC 2022-ED3
    PK21U030  2021 10 24.8639  1.891077  0.549418  335.3243   75.0940   69.9617  20250607  15.5  4.0  P/2021 U3 (Attard-Maury)                                 MPEC 2022-L66
    CK21U040  2021 12 22.5427  1.787379  0.960707  237.3244  241.8058  152.8830  20250607  17.0  4.0  C/2021 U4 (Leonard)                                      MPEC 2021-W31
    CK21U050  2022 01 26.9766  2.359144  0.989386  321.4594  182.6792   39.0401  20250607  13.0  4.0  C/2021 U5 (Catalina)                                     MPEC 2022-WQ9
